{
    "links": {
        "self": "http://www.neowsapp.com/rest/v1/neo/3837786?api_key=iIulBulltgU6a56xZRHN4H3l9WmuAYTsLGpBGhQ2"
    },
    "id": "3837786",
    "neo_reference_id": "3837786",
    "name": "(2019 AN8)",
    "designation": "2019 AN8",
    "nasa_jpl_url": "http://ssd.jpl.nasa.gov/sbdb.cgi?sstr=3837786",
    "absolute_magnitude_h": 25.2,
    "estimated_diameter": {
        "kilometers": {
            "estimated_diameter_min": 0.0242412481,
            "estimated_diameter_max": 0.0542050786
        },
        "meters": {
            "estimated_diameter_min": 24.2412481101,
            "estimated_diameter_max": 54.2050786336
        },
        "miles": {
            "estimated_diameter_min": 0.0150628086,
            "estimated_diameter_max": 0.0336814639
        },
        "feet": {
            "estimated_diameter_min": 79.5316564495,
            "estimated_diameter_max": 177.8381901842
        }
    },
    "is_potentially_hazardous_asteroid": false,
    "close_approach_data": [
        {
            "close_approach_date": "2019-01-02",
            "close_approach_date_full": "2019-Jan-02 06:39",
            "epoch_date_close_approach": 1546411140000,
            "relative_velocity": {
                "kilometers_per_second": "21.6008174934",
                "kilometers_per_hour": "77762.9429763642",
                "miles_per_hour": "48318.8686510636"
            },
            "miss_distance": {
                "astronomical": "0.0292975674",
                "lunar": "11.3967537186",
                "kilometers": "4382853.679221438",
                "miles": "2723378.9915063244"
            },
            "orbiting_body": "Earth"
        }
    ],
    "orbital_data": {
        "orbit_id": "2",
        "orbit_determination_date": "2019-07-27 14:01:41",
        "first_observation_date": "2019-01-09",
        "last_observation_date": "2019-01-11",
        "data_arc_in_days": 2,
        "observations_used": 13,
        "orbit_uncertainty": "9",
        "minimum_orbit_intersection": ".00865634",
        "jupiter_tisserand_invariant": "4.302",
        "epoch_osculation": "2458493.5",
        "eccentricity": ".6741513482482949",
        "semi_major_axis": "1.474443891072941",
        "inclination": "10.74193445910883",
        "ascending_node_longitude": "105.1921618337641",
        "orbital_period": "653.94436601907",
        "perihelion_distance": ".4804455539896559",
        "perihelion_argument": "251.5436847603626",
        "aphelion_distance": "2.468442228156227",
        "perihelion_time": "2458436.566491941112",
        "mean_anomaly": "31.34221191623812",
        "mean_motion": ".5505055455887234",
        "equinox": "J2000",
        "orbit_class": {
            "orbit_class_type": "APO",
            "orbit_class_description": "Near-Earth asteroid orbits which cross the Earth’s orbit similar to that of 1862 Apollo",
            "orbit_class_range": "a (semi-major axis) > 1.0 AU; q (perihelion) < 1.017 AU"
        }
    },
    "is_sentry_object": false
}